1 90000           19337.16666667 -.00000212  00000-0 -74753-3 0 00005
2 90000 080.9001 074.9110 0009650 271.1475 135.8638 12.96034122000013
1 90001           19337.16666667 -.00000183  00000-0 -64430-3 0 00004
2 90001 080.9000 074.9110 0009650 271.1492 140.6622 12.96034075000016
1 90002           19337.16666667 -.00000155  00000-0 -54543-3 0 00008
2 90002 080.9000 074.9110 0009650 271.1508 145.4607 12.96034029000010
1 90003           19337.16666667 -.00000129  00000-0 -45253-3 0 00008
2 90003 080.9000 074.9110 0009649 271.1520 150.2595 12.96033985000013
1 90004           19337.16666667 -.00000104  00000-0 -36693-3 0 00000
2 90004 080.9000 074.9110 0009649 271.1529 155.0587 12.96033944000012
1 90005           19337.16666667 -.00000082  00000-0 -28956-3 0 00009
2 90005 080.9000 074.9110 0009649 271.1534 159.8582 12.96033906000014
1 90006           19337.16666667 -.00000063  00000-0 -22077-3 0 00007
2 90006 080.9000 074.9109 0009649 271.1535 164.6582 12.96033872000010
1 90007           19337.16666667 -.00000046  00000-0 -16031-3 0 00002
2 90007 080.9000 074.9109 0009649 271.1531 169.4586 12.96033843000012
1 90008           19337.16666667 -.00000044  00000-0 -15632-3 0 00007
2 90008 080.9000 074.9109 0009649 271.1525 174.2592 12.96033836000019
1 90009           19337.16666667 -.00000031  00000-0 -11060-3 0 00005
2 90009 080.9000 074.9109 0009648 271.1516 179.0602 12.96033816000012
1 90010           19337.16666667 -.00000019  00000-0 -67566-4 0 00006
2 90010 080.9000 074.9109 0009648 271.1504 183.8613 12.96033801000010
1 90011           19337.16666667  .00000006  00000-0  19697-4 0 00003
2 90011 080.9000 074.9109 0009648 271.1492 188.6626 12.96033772000011
1 90012           19337.16666667  .00000016  00000-0  56846-4 0 00002
2 90012 080.9000 074.9109 0009648 271.1480 193.4637 12.96033765000017
1 90013           19337.16666667  .00000027  00000-0  94422-4 0 00007
2 90013 080.9000 074.9109 0009649 271.1470 198.2647 12.96033760000017
1 90014           19337.16666667  .00000038  00000-0  13450-3 0 00001
2 90014 080.9000 074.9109 0009649 271.1463 203.0655 12.96033758000011
1 90015           19337.16666667  .00000051  00000-0  17931-3 0 00005
2 90015 080.9000 074.9109 0009649 271.1458 207.8659 12.96033756000010
1 90016           19337.16666667  .00000066  00000-0  23108-3 0 00005
2 90016 080.9000 074.9109 0009649 271.1458 212.6660 12.96033754000015
1 90017           19337.16666667  .00000083  00000-0  29183-3 0 00004
2 90017 080.9000 074.9109 0009649 271.1461 217.4656 12.96033751000015
1 90018           19337.16666667  .00000103  00000-0  36314-3 0 00002
2 90018 080.9000 074.9109 0009649 271.1469 222.2649 12.96033747000015
1 90019           19337.16666667  .00000127  00000-0  44602-3 0 00008
2 90019 080.9000 074.9109 0009650 271.1480 227.0637 12.96033741000015
1 90020           19337.16666667  .00000154  00000-0  54086-3 0 00007
2 90020 080.9001 074.9109 0009650 271.1494 231.8623 12.96033731000010
1 90021           19337.16666667  .00000184  00000-0  64738-3 0 00006
2 90021 080.9001 074.9109 0009650 271.1511 236.6606 12.96033719000011
1 90022           19337.16666667  .00000217  00000-0  76459-3 0 00007
2 90022 080.9001 074.9109 0009650 271.1528 241.4589 12.96033703000017
1 90023           19337.16666667  .00000253  00000-0  89057-3 0 00006
2 90023 080.9001 074.9109 0009649 271.1545 246.2572 12.96033684000018
1 90024           19337.16666667  .00000273  00000-0  95963-3 0 00002
2 90024 080.9001 074.9109 0009649 271.1561 251.0556 12.96033678000016
1 90025           19337.16666667  .00000305  00000-0  10750-2 0 00009
2 90025 080.9001 074.9109 0009649 271.1574 255.8543 12.96033658000017
1 90026           19337.16666667  .00000338  00000-0  11902-2 0 00006
2 90026 080.9001 074.9109 0009648 271.1582 260.6535 12.96033636000017
1 90027           19337.16666667  .00000370  00000-0  13031-2 0 00008
2 90027 080.9001 074.9109 0009648 271.1586 265.4531 12.96033613000016
1 90028           19337.16666667  .00000401  00000-0  14110-2 0 00003
2 90028 080.9001 074.9109 0009648 271.1583 270.2534 12.96033588000012
1 90029           19337.16666667  .00000429  00000-0  15114-2 0 00009
2 90029 080.9001 074.9109 0009647 271.1575 275.0542 12.96033562000017
1 90030           19337.16666667  .00000455  00000-0  16018-2 0 00004
2 90030 080.9001 074.9109 0009647 271.1561 279.8557 12.96033537000014
1 90031           19337.16666667  .00000477  00000-0  16796-2 0 00002
2 90031 080.9001 074.9109 0009646 271.1541 284.6577 12.96033512000011
1 90032           19337.16666667  .00000510  00000-0  17944-2 0 00007
2 90032 080.9001 074.9109 0009646 271.1515 289.4602 12.96033476000014
1 90033           19337.16666667  .00000518  00000-0  18223-2 0 00007
2 90033 080.9001 074.9109 0009646 271.1487 294.2631 12.96033459000010
1 90034           19337.16666667  .00000521  00000-0  18339-2 0 00000
2 90034 080.9001 074.9110 0009646 271.1456 299.0662 12.96033445000011
1 90035           19337.16666667  .00000519  00000-0  18284-2 0 00007
2 90035 080.9001 074.9110 0009646 271.1425 303.8693 12.96033433000013
1 90036           19337.16666667  .00000513  00000-0  18050-2 0 00003
2 90036 080.9001 074.9110 0009646 271.1395 308.6724 12.96033425000019
1 90037           19337.16666667  .00000501  00000-0  17627-2 0 00000
2 90037 080.9001 074.9110 0009646 271.1367 313.4751 12.96033421000019
1 90038           19337.16666667  .00000483  00000-0  17007-2 0 00002
2 90038 080.9000 074.9110 0009647 271.1344 318.2775 12.96033422000015
1 90039           19337.16666667  .00000460  00000-0  16185-2 0 00004
2 90039 080.9000 074.9110 0009647 271.1326 323.0793 12.96033429000017
1 90040           19337.16666667  .00000431  00000-0  15156-2 0 00001
2 90040 080.9000 074.9110 0009648 271.1315 327.8804 12.96033441000017
1 90041           19337.16666667  .00000395  00000-0  13919-2 0 00006
2 90041 080.9000 074.9110 0009648 271.1312 332.6807 12.96033459000011
1 90042           19337.16666667  .00000354  00000-0  12477-2 0 00000
2 90042 080.9000 074.9110 0009649 271.1317 337.4802 12.96033484000014
1 90043           19337.16666667  .00000308  00000-0  10839-2 0 00000
2 90043 080.9000 074.9110 0009649 271.1330 342.2789 12.96033516000014
1 90044           19337.16666667  .00000256  00000-0  90232-3 0 00009
2 90044 080.9000 074.9109 0009650 271.1351 347.0768 12.96033555000011
1 90045           19337.16666667  .00000187  00000-0  65744-3 0 00003
2 90045 080.9000 074.9109 0009650 271.1379 351.8740 12.96033618000015
1 90046           19337.16666667  .00000127  00000-0  44547-3 0 00006
2 90046 080.9000 074.9109 0009651 271.1412 356.6706 12.96033670000018
1 90047           19337.16666667  .00000064  00000-0  22600-3 0 00003
2 90047 080.9000 074.9109 0009651 271.1449 001.4669 12.96033728000016
1 90048           19337.16666667  .00000014  00000-0  50038-4 0 00006
2 90048 080.9000 074.9109 0009651 271.1488 006.2630 12.96033773000011
1 90049           19337.16666667 -.00000051  00000-0 -17842-3 0 00005
2 90049 080.9000 074.9109 0009651 271.1528 011.0589 12.96033840000019
1 90050           19337.16666667 -.00000115  00000-0 -40598-3 0 00002
2 90050 080.9000 074.9109 0009651 271.1566 015.8551 12.96033909000010
1 90051           19337.16666667 -.00000179  00000-0 -62880-3 0 00001
2 90051 080.9000 074.9109 0009651 271.1601 020.6515 12.96033980000014
1 90052           19337.16666667 -.00000239  00000-0 -84286-3 0 00003
2 90052 080.9000 074.9109 0009650 271.1631 025.4485 12.96034050000015
1 90053           19337.16666667 -.00000297  00000-0 -10441-2 0 00009
2 90053 080.9000 074.9109 0009650 271.1655 030.2460 12.96034119000015
1 90054           19337.16666667 -.00000349  00000-0 -12285-2 0 00006
2 90054 080.9000 074.9109 0009649 271.1671 035.0443 12.96034185000019
1 90055           19337.16666667 -.00000396  00000-0 -13926-2 0 00002
2 90055 080.9000 074.9109 0009648 271.1679 039.8434 12.96034247000018
1 90056           19337.16666667 -.00000436  00000-0 -15336-2 0 00005
2 90056 080.9000 074.9109 0009648 271.1679 044.6434 12.96034303000016
1 90057           19337.16666667 -.00000468  00000-0 -16490-2 0 00003
2 90057 080.9000 074.9109 0009647 271.1671 049.4441 12.96034353000014
1 90058           19337.16666667 -.00000494  00000-0 -17375-2 0 00006
2 90058 080.9001 074.9109 0009647 271.1656 054.2456 12.96034396000016
1 90059           19337.16666667 -.00000511  00000-0 -17982-2 0 00001
2 90059 080.9001 074.9109 0009646 271.1634 059.0477 12.96034431000018
1 90060           19337.16666667 -.00000520  00000-0 -18313-2 0 00002
2 90060 080.9001 074.9109 0009646 271.1608 063.8503 12.96034457000012
1 90061           19337.16666667 -.00000538  00000-0 -18932-2 0 00009
2 90061 080.9001 074.9109 0009646 271.1579 068.6532 12.96034487000018
1 90062           19337.16666667 -.00000539  00000-0 -18959-2 0 00000
2 90062 080.9001 074.9109 0009646 271.1548 073.4563 12.96034501000010
1 90063           19337.16666667 -.00000533  00000-0 -18771-2 0 00007
2 90063 080.9001 074.9109 0009646 271.1516 078.2594 12.96034507000019
1 90064           19337.16666667 -.00000522  00000-0 -18385-2 0 00007
2 90064 080.9001 074.9109 0009646 271.1487 083.0623 12.96034506000013
1 90065           19337.16666667 -.00000506  00000-0 -17818-2 0 00000
2 90065 080.9001 074.9109 0009646 271.1461 087.8650 12.96034496000016
1 90066           19337.16666667 -.00000486  00000-0 -17093-2 0 00003
2 90066 080.9001 074.9109 0009647 271.1439 092.6671 12.96034479000011
1 90067           19337.16666667 -.00000461  00000-0 -16232-2 0 00001
2 90067 080.9001 074.9109 0009647 271.1423 097.4688 12.96034455000010
1 90068           19337.16666667 -.00000434  00000-0 -15262-2 0 00004
2 90068 080.9001 074.9109 0009647 271.1412 102.2699 12.96034426000014
1 90069           19337.16666667 -.00000404  00000-0 -14208-2 0 00001
2 90069 080.9001 074.9109 0009648 271.1408 107.0704 12.96034391000012
1 90070           19337.16666667 -.00000359  00000-0 -12654-2 0 00005
2 90070 080.9001 074.9109 0009648 271.1409 111.8703 12.96034341000012
1 90071           19337.16666667 -.00000332  00000-0 -11677-2 0 00001
2 90071 080.9001 074.9109 0009649 271.1416 116.6696 12.96034302000013
1 90072           19337.16666667 -.00000303  00000-0 -10654-2 0 00004
2 90072 080.9001 074.9110 0009649 271.1427 121.4685 12.96034260000013
1 90073           19337.16666667 -.00000273  00000-0 -95998-3 0 00006
2 90073 080.9001 074.9110 0009649 271.1441 126.2671 12.96034215000018
1 90074           19337.16666667 -.00000242  00000-0 -85338-3 0 00000
2 90074 080.9001 074.9110 0009650 271.1458 131.0655 12.96034169000013
